[{"OBJECT_NAME":"STARLINK-3804","OBJECT_ID":"2022-041K","EPOCH":"2026-03-09T19:38:51.368640","MEAN_MOTION":15.08842954,"ECCENTRICITY":0.00014333,"INCLINATION":53.2186,"RA_OF_ASC_NODE":108.5683,"ARG_OF_PERICENTER":85.6934,"MEAN_ANOMALY":274.4222,"EPHEMERIS_TYPE":0,"CLASSIFICATION_TYPE":"U","NORAD_CAT_ID":52270,"ELEMENT_SET_NO":999,"REV_AT_EPOCH":21438,"BSTAR":-8.0667226e-5,"MEAN_MOTION_DOT":-1.572e-5,"MEAN_MOTION_DDOT":0},{"OBJECT_NAME":"CZ-4B DEB","OBJECT_ID":"2006-015E","EPOCH":"2026-03-09T20:34:53.082912","MEAN_MOTION":15.19885806,"ECCENTRICITY":0.00461993,"INCLINATION":98.0565,"RA_OF_ASC_NODE":201.7753,"ARG_OF_PERICENTER":62.4887,"MEAN_ANOMALY":298.1031,"EPHEMERIS_TYPE":0,"CLASSIFICATION_TYPE":"U","NORAD_CAT_ID":29538,"ELEMENT_SET_NO":999,"REV_AT_EPOCH":5389,"BSTAR":0.0022587151,"MEAN_MOTION_DOT":0.00050103,"MEAN_MOTION_DDOT":0}]
